NORAD_CAT_ID,OBJECT_NAME,OBJECT_TYPE,EPOCH,MEAN_MOTION,ECCENTRICITY,INCLINATION,RA_OF_ASC_NODE,ARG_OF_PERICENTER,MEAN_ANOMALY,BSTAR,MEAN_MOTION_DOT,MEAN_MOTION_DDOT,TLE_LINE0,TLE_LINE1,TLE_LINE2,SEMIMAJOR_AXIS,PERIOD,APOGEE,PERIGEE,DECAYED
56778.0,STARLINK-6304,PAYLOAD,2024-06-14 21:34:03,14.98330131,0.0002967,69.9992,120.1052,270.9539,89.128,-1.1195e-05,-2.27e-06,0.0,0 STARLINK-6304,1 56778U 23078M   24166.89864818 -.00000227  00000-0 -11195-4 0  9998,2 56778  69.9992 120.1052 0002967 270.9539  89.1280 14.98330131 58384,6950.192,96.107,574.12,569.995,0.0
56778.0,STARLINK-6304,PAYLOAD,2024-06-15 07:10:51,14.98335575,0.0002924,69.9992,119.0952,270.8637,89.2187,3.6769e-05,3.46e-06,0.0,0 STARLINK-6304,1 56778U 23078M   24167.29920270  .00000346  00000-0  36769-4 0  9992,2 56778  69.9992 119.0952 0002924 270.8637  89.2187 14.98335575 58442,6950.176,96.107,574.073,570.008,0.0
56778.0,STARLINK-6304,PAYLOAD,2024-06-15 21:36:03,14.98331611,0.0002799,69.9995,117.5804,272.7365,87.3473,-2.6028e-05,-4.04e-06,0.0,0 STARLINK-6304,1 56778U 23078M   24167.90004612 -.00000404  00000-0 -26028-4 0  9997,2 56778  69.9995 117.5804 0002799 272.7365  87.3473 14.98331611 58537,6950.188,96.107,573.998,570.108,0.0
56778.0,STARLINK-6304,PAYLOAD,2024-06-16 13:37:24,14.9832989,0.0002639,69.9997,115.8982,269.0238,91.0619,-1.2318e-05,-2.4e-06,0.0,0 STARLINK-6304,1 56778U 23078M   24168.56764544 -.00000240  00000-0 -12318-4 0  9992,2 56778  69.9997 115.8982 0002639 269.0238  91.0619 14.98329890 58639,6950.193,96.107,573.892,570.224,0.0
56778.0,STARLINK-6304,PAYLOAD,2024-06-16 21:38:05,14.98324592,0.0002418,70.0003,115.0578,262.6718,97.4166,-6.8519e-05,-9.1e-06,0.0,0 STARLINK-6304,1 56778U 23078M   24168.90145072 -.00000910  00000-0 -68519-4 0  9997,2 56778  70.0003 115.0578 0002418 262.6718  97.4166 14.98324592 58686,6950.21,96.107,573.755,570.394,0.0
56778.0,STARLINK-6304,PAYLOAD,2024-06-17 13:39:27,14.98311991,0.0002627,69.9996,113.3733,268.8339,91.2519,-0.00018246,-2.268e-05,0.0,0 STARLINK-6304,1 56778U 23078M   24169.56906889 -.00002268  00000-0 -18246-3 0  9990,2 56778  69.9996 113.3733 0002627 268.8339  91.2519 14.98311991 59041,6950.249,96.108,573.939,570.288,0.0
56778.0,STARLINK-6304,PAYLOAD,2024-06-17 21:40:07,14.98316904,0.0002959,69.9984,112.5293,271.0806,89.0014,-0.00015284,-1.916e-05,0.0,0 STARLINK-6304,1 56778U 23078M   24169.90286776 -.00001916  00000-0 -15284-3 0  9992,2 56778  69.9984 112.5293 0002959 271.0806  89.0014 14.98316904 58833,6950.233,96.108,574.155,570.042,0.0
56778.0,STARLINK-6304,PAYLOAD,2024-06-18 02:28:31,14.98318582,0.0002851,69.9987,112.0248,269.051,91.0322,-0.00011383,-1.45e-05,0.0,0 STARLINK-6304,1 56778U 23078M   24170.10314731 -.00001450  00000-0 -11383-3 0  9998,2 56778  69.9987 112.0248 0002851 269.0510  91.0322 14.98318582 59123,6950.228,96.108,574.075,570.112,0.0
56778.0,STARLINK-6304,PAYLOAD,2024-06-18 13:41:27,14.98327048,0.0002725,69.9992,110.8476,268.4291,91.6556,2.3828e-05,1.91e-06,0.0,0 STARLINK-6304,1 56778U 23078M   24170.57046076  .00000191  00000-0  23828-4 0  9990,2 56778  69.9992 110.8476 0002725 268.4291  91.6556 14.98327048 58937,6950.202,96.107,573.961,570.173,0.0
56778.0,STARLINK-6304,PAYLOAD,2024-06-18 21:42:07,14.98352955,0.0002892,69.999,110.0056,270.9453,89.1375,-0.00031005,-3.793e-05,0.0,0 STARLINK-6304,1 56778U 23078M   24170.90425291 -.00003793  00000-0 -31005-3 0  9995,2 56778  69.9990 110.0056 0002892 270.9453  89.1375 14.98352955 58985,6950.122,96.106,573.997,569.977,0.0
56778.0,STARLINK-6304,PAYLOAD,2024-06-19 13:43:28,14.9833025,0.0002707,69.9991,108.3224,267.873,92.2119,0.00027915,3.239e-05,0.0,0 STARLINK-6304,1 56778U 23078M   24171.57185410  .00003239  00000-0  27915-3 0  9993,2 56778  69.9991 108.3224 0002707 267.8730  92.2119 14.98330250 59088,6950.192,96.107,573.939,570.176,0.0
56778.0,STARLINK-6304,PAYLOAD,2024-06-19 20:08:00,14.98336044,0.0002689,69.9992,107.6491,268.3056,91.7795,0.00021251,2.444e-05,0.0,0 STARLINK-6304,1 56778U 23078M   24171.83889182  .00002444  00000-0  21251-3 0  9993,2 56778  69.9992 107.6491 0002689 268.3056  91.7795 14.98336044 59387,6950.174,96.107,573.908,570.17,0.0
56778.0,STARLINK-6304,PAYLOAD,2024-06-19 21:44:08,14.98336255,0.000269,69.9992,107.4808,268.3077,91.7774,0.00020998,2.414e-05,0.0,0 STARLINK-6304,1 56778U 23078M   24171.90565143  .00002414  00000-0  20998-3 0  9993,2 56778  69.9992 107.4808 0002690 268.3077  91.7774 14.98336255 59136,6950.174,96.107,573.908,570.169,0.0
56778.0,STARLINK-6304,PAYLOAD,2024-06-20 05:44:47,14.98344533,0.0002665,69.9992,106.6393,268.2226,91.8628,0.00022063,2.541e-05,0.0,0 STARLINK-6304,1 56778U 23078M   24172.23944356  .00002541  00000-0  22063-3 0  9993,2 56778  69.9992 106.6393 0002665 268.2226  91.8628 14.98344533 59185,6950.148,96.106,573.865,570.161,0.0
56778.0,STARLINK-6304,PAYLOAD,2024-06-20 21:46:09,14.9833664,0.0002506,69.9995,104.9559,268.4676,91.6196,-9.1705e-05,-1.187e-05,0.0,0 STARLINK-6304,1 56778U 23078M   24172.90705286 -.00001187  00000-0 -91705-4 0  9991,2 56778  69.9995 104.9559 0002506 268.4676  91.6196 14.98336640 59287,6950.172,96.107,573.779,570.296,0.0
56778.0,STARLINK-6304,PAYLOAD,2024-06-20 23:22:17,14.98336056,0.0002512,69.9996,104.7876,268.4791,91.608,-9.6288e-05,-1.242e-05,0.0,0 STARLINK-6304,1 56778U 23078M   24172.97381296 -.00001242  00000-0 -96288-4 0  9992,2 56778  69.9996 104.7876 0002512 268.4791  91.6080 14.98336056 59556,6950.174,96.107,573.785,570.293,0.0
56778.0,STARLINK-6304,PAYLOAD,2024-06-21 05:46:49,14.98335492,0.0002518,69.9997,104.1144,268.4907,91.5963,-0.00010552,-1.352e-05,0.0,0 STARLINK-6304,1 56778U 23078M   24173.24085231 -.00001352  00000-0 -10552-3 0  9994,2 56778  69.9997 104.1144 0002518 268.4907  91.5963 14.98335492 59332,6950.176,96.107,573.791,570.291,0.0
56778.0,STARLINK-6304,PAYLOAD,2024-06-21 21:48:09,14.98340248,0.0002452,69.9999,102.4313,269.7688,90.319,-0.00011494,-1.464e-05,0.0,0 STARLINK-6304,1 56778U 23078M   24173.90844588 -.00001464  00000-0 -11494-3 0  9995,2 56778  69.9999 102.4313 0002452 269.7688  90.3190 14.98340248 59435,6950.161,96.106,573.73,570.322,0.0
56778.0,STARLINK-6304,PAYLOAD,2024-06-22 04:12:41,14.98339204,0.0002418,70.0001,101.7593,265.5325,94.5558,-0.00011273,-1.438e-05,0.0,0 STARLINK-6304,1 56778U 23078M   24174.17548468 -.00001438  00000-0 -11273-3 0  9999,2 56778  70.0001 101.7593 0002418 265.5325  94.5558 14.98339204 59735,6950.164,96.106,573.71,570.349,0.0
56778.0,STARLINK-6304,PAYLOAD,2024-06-22 05:48:49,14.98339016,0.0002421,70.0001,101.5909,265.8169,94.2714,-0.00011192,-1.428e-05,0.0,0 STARLINK-6304,1 56778U 23078M   24174.24224441 -.00001428  00000-0 -11192-3 0  9998,2 56778  70.0001 101.5909 0002421 265.8169  94.2714 14.98339016 59481,6950.165,96.106,573.713,570.347,0.0
56778.0,STARLINK-6304,PAYLOAD,2024-06-22 21:50:10,14.98330088,0.0002594,69.9998,99.907,259.1108,100.9759,2.7346e-05,2.33e-06,0.0,0 STARLINK-6304,1 56778U 23078M   24174.90984275  .00000233  00000-0  27346-4 0  9999,2 56778  69.9998  99.9070 0002594 259.1108 100.9759 14.98330088 59587,6950.193,96.107,573.86,570.255,0.0
56778.0,STARLINK-6304,PAYLOAD,2024-06-23 04:14:42,14.98330448,0.0002597,69.9999,99.2337,258.7682,101.3186,2.8538e-05,2.48e-06,0.0,0 STARLINK-6304,1 56778U 23078M   24175.17688233  .00000248  00000-0  28538-4 0  9994,2 56778  69.9999  99.2337 0002597 258.7682 101.3186 14.98330448 59884,6950.192,96.107,573.861,570.252,0.0
56778.0,STARLINK-6304,PAYLOAD,2024-06-23 21:52:11,14.98330965,0.0002581,70.0,97.3824,255.0568,105.0305,-2.177e-05,-3.53e-06,0.0,0 STARLINK-6304,1 56778U 23078M   24175.91124256 -.00000353  00000-0 -21770-4 0  9996,2 56778  70.0000  97.3824 0002581 255.0568 105.0305 14.98330965 59738,6950.19,96.107,573.849,570.261,0.0
56778.0,STARLINK-6304,PAYLOAD,2024-06-24 04:16:43,14.9833164,0.000259,70.0,96.7089,256.705,103.382,-1.3097e-05,-2.49e-06,0.0,0 STARLINK-6304,1 56778U 23078M   24176.17828170 -.00000249  00000-0 -13097-4 0  9998,2 56778  70.0000  96.7089 0002590 256.7050 103.3820 14.98331640 60037,6950.188,96.107,573.853,570.253,0.0
56778.0,STARLINK-6304,PAYLOAD,2024-06-24 21:54:12,14.98328595,0.0002584,70.0001,94.8576,255.8224,104.2648,-2.9157e-05,-4.41e-06,0.0,0 STARLINK-6304,1 56778U 23078M   24176.91264358 -.00000441  00000-0 -29157-4 0  9990,2 56778  70.0001  94.8576 0002584 255.8224 104.2648 14.98328595 59888,6950.197,96.107,573.858,570.266,0.0
56778.0,STARLINK-6304,PAYLOAD,2024-06-25 04:18:44,14.98328437,0.0002588,70.0003,94.1844,256.3138,103.7733,-2.8913e-05,-4.38e-06,0.0,0 STARLINK-6304,1 56778U 23078M   24177.17968393 -.00000438  00000-0 -28913-4 0  9994,2 56778  70.0003  94.1844 0002588 256.3138 103.7733 14.98328437 60184,6950.198,96.107,573.861,570.264,0.0
56778.0,STARLINK-6304,PAYLOAD,2024-06-25 21:56:12,14.98333008,0.0002681,70.0002,92.3332,257.3771,102.7089,2.1073e-05,1.59e-06,0.0,0 STARLINK-6304,1 56778U 23078M   24177.91403886  .00000159  00000-0  21073-4 0  9995,2 56778  70.0002  92.3332 0002681 257.3771 102.7089 14.98333008 60030,6950.184,96.107,573.912,570.185,0.0
56778.0,STARLINK-6304,PAYLOAD,2024-06-26 04:20:44,14.98336171,0.0002657,70.0002,91.6602,257.3419,102.7443,5.6922e-05,5.86e-06,0.0,0 STARLINK-6304,1 56778U 23078M   24178.18107514  .00000586  00000-0  56922-4 0  9999,2 56778  70.0002  91.6602 0002657 257.3419 102.7443 14.98336171 60335,6950.174,96.107,573.885,570.192,0.0
56778.0,STARLINK-6304,PAYLOAD,2024-06-27 04:22:46,14.98327342,0.0002434,70.0005,89.1368,257.5629,102.5258,1.9035e-05,1.34e-06,0.0,0 STARLINK-6304,1 56778U 23078M   24179.18248190  .00000134  00000-0  19035-4 0  9999,2 56778  70.0005  89.1368 0002434 257.5629 102.5258 14.98327342 60485,6950.201,96.107,573.758,570.374,0.0
56778.0,STARLINK-6304,PAYLOAD,2024-06-27 10:47:19,14.98289366,0.0002406,70.0008,88.4619,276.6718,83.4167,0.00055311,6.506e-05,0.0,0 STARLINK-6304,1 56778U 23078M   24179.44953672  .00006506  00000-0  55311-3 0  9991,2 56778  70.0008  88.4619 0002406 276.6718  83.4167 14.98289366 60523,6950.319,96.11,573.856,570.511,0.0
